INMARSAT GX5            
1 44801U 19080B   26168.79722793  .00000070  00000+0  00000+0 0  9999
2 44801   0.0347 357.7375 0002300 104.4679 101.8824  1.00273250  6792
JCSAT-18 (KACIFIC 1)    
1 44868U 19091A   26168.63794640 -.00000206  00000+0  00000+0 0  9999
2 44868   0.0338 219.1139 0000379  50.4383  15.9809  1.00270163 24013
ELEKTRO-L 3             
1 44903U 19095A   26168.84054402 -.00000102  00000+0  00000+0 0  9996
2 44903   0.2593  81.5018 0000934 352.6740 210.4629  1.00271345 23717
SHIJIAN-20 (SJ-20)      
1 44910U 19097A   26168.26405454  .00000128  00000+0  00000+0 0  9996
2 44910   4.9197  75.0598 0014479  55.6109 274.8205  1.00273013 23690
TJS-5                   
1 44978U 20002A   26168.64928888 -.00000347  00000+0  00000+0 0  9995
2 44978   0.0129 326.1075 0007308  80.2830 200.7360  1.00268310 23711
GSAT-30                 
1 45026U 20005A   26168.41421902 -.00000169  00000+0  00000+0 0  9995
2 45026   0.0740  95.6947 0003374 349.5029  52.5749  1.00270994 23514
EUTELSAT KONNECT        
1 45027U 20005B   26167.75755976  .00000047  00000+0  00000+0 0  9997
2 45027   0.0717  96.7174 0001470 123.4907 324.7594  1.00272204 24331
JCSAT-17                
1 45245U 20013A   26168.85241741 -.00000322  00000+0  00000+0 0  9997
2 45245   5.3922 356.8862 0002514  86.5296 265.5738  1.00271265 23239
GEO-KOMPSAT-2B          
1 45246U 20013B   26168.85094405 -.00000349  00000+0  00000+0 0  9990
2 45246   0.0471 199.6226 0000757  68.9328  72.1439  1.00269603 23283
BEIDOU-3 G2             
1 45344U 20017A   26168.84141068 -.00000147  00000+0  00000+0 0  9996
2 45344   2.8657  47.3609 0002020  32.8268 208.8897  1.00271821 23269
AEHF-6 (USA 298)        
1 45465U 20022B   26168.85285073 -.00000303  00000+0  00000+0 0  9996
2 45465   2.5463 301.1760 0043134  17.0430  32.6845  1.00271076 23023
BEIDOU-3 G3             
1 45807U 20040A   26168.84739072 -.00000360  00000+0  00000+0 0  9991
2 45807   2.4490  67.4442 0002365 335.7909 278.4060  1.00266048 22079
APSTAR-6D               
1 45863U 20045A   26168.79986241 -.00000322  00000+0  00000+0 0  9992
2 45863   0.0483  93.7080 0002541 350.1275 244.2062  1.00274698 21869
KOREASAT 116            
1 45920U 20048A   26168.84851737 -.00000367  00000+0  00000+0 0  9995
2 45920   0.0208 298.7152 0000801 179.6980 209.3411  1.00268804 21647
EXPRESS 103             
1 45985U 20053A   26168.89330402 -.00000286  00000+0  00000+0 0  9998
2 45985   0.0145 288.7604 0000515   4.8817  30.5875  1.00271887 21653
EXPRESS 80              
1 45986U 20053B   26168.04089091  .00000000  00000+0  00000+0 0  9994
2 45986   0.0248 316.4086 0001697 216.9850 186.6086  1.00270101 21639
BSAT-4B                 
1 46112U 20056A   26168.72235712 -.00000355  00000+0  00000+0 0  9991
2 46112   0.0550 148.9697 0003962 325.8186 161.0598  1.00271397 21398
MEV-2                   
1 46113U 20056B   26167.66137045 -.00000013  00000+0  00000+0 0  9995
2 46113   0.0133 313.0240 0000200 252.2268 296.7595  1.00271868 80538
GALAXY 30 (G-30)        
1 46114U 20056C   26168.72949023  .00000032  00000+0  00000+0 0  9991
2 46114   0.0146  50.6946 0002128  36.1125 316.7814  1.00271477 21293
GAOFEN-13 01            
1 46610U 20071A   26168.84903737 -.00000368  00000+0  00000+0 0  9997
2 46610   0.5239  84.8383 0041375 123.7094 121.4163  1.00270200 20921
TIANTONG-1 2            
1 46916U 20082A   26168.87976777 -.00000361  00000+0  00000+0 0  9998
2 46916   0.7894 327.6749 0000979 106.1235 273.9682  1.00268965 20665
LUCAS (JDRS-1)          
1 47202U 20089A   26168.84349068 -.00000241  00000+0  00000+0 0  9995
2 47202   0.0564 273.5898 0002274 149.0975 237.8573  1.00269658 20424
SXM-7                   
1 47240U 20096A   26168.80853427 -.00000210  00000+0  00000+0 0  9996
2 47240   0.0323  97.3305 0003766  28.2374 346.4003  1.00269789  7450
CMS-01                  
1 47256U 20099A   26168.41421902 -.00000169  00000+0  00000+0 0  9995
2 47256   0.0994  94.4269 0003745 181.3695 221.9783  1.00270629 20207
TURKSAT 5A              
1 47306U 21001A   26167.97603337  .00000151  00000+0  00000+0 0  9999
2 47306   0.0216  61.3987 0000118 196.0319  30.1069  1.00271004 19963
TIANTONG-1 3            
1 47321U 21003A   26168.84167068 -.00000159  00000+0  00000+0 0  9990
2 47321   1.7557 339.3646 0003010 112.4213 198.8365  1.00270207 19960
TJS-6                   
1 47613U 21010A   26168.78955420  .00000037  00000+0  00000+0 0  9996
2 47613   0.2492 264.2466 0002912 225.4286 239.0828  1.00269513 19811
SBIRS GEO-5 (USA 315)   
1 48618U 21042A   26168.64269704 -.00000272  00000+0  00000+0 0  9997
2 48618   5.1028 329.1386 0001301 121.0759 140.8559  1.00270437 18776
FENGYUN 4B              
1 48808U 21047A   26168.84626404 -.00000336  00000+0  00000+0 0  9990
2 48808   0.1553  77.5947 0005949 275.3875 322.4050  1.00276339 18575
SXM-8                   
1 48838U 21049A   26168.80870762 -.00000210  00000+0  00000+0 0  9990
2 48838   0.0178  11.6514 0005042  18.9172  81.4738  1.00270082 18590
TIANLIAN 1-05           
1 49011U 21063A   26168.82887074  .00000102  00000+0  00000+0 0  9995
2 49011   1.5964  80.6998 0000501 332.3650 168.2061  1.00271518 18086
STAR ONE D2             
1 49055U 21069A   26168.23689498  .00000000  00000+0  00000+0 0  9991
2 49055   0.0152 346.2449 0002093 126.0721 168.3531  1.00268720 17942
