OBJECT_NAME,OBJECT_ID,EPOCH,MEAN_MOTION,ECCENTRICITY,INCLINATION,RA_OF_ASC_NODE,ARG_OF_PERICENTER,MEAN_ANOMALY,EPHEMERIS_TYPE,CLASSIFICATION_TYPE,NORAD_CAT_ID,ELEMENT_SET_NO,REV_AT_EPOCH,BSTAR,MEAN_MOTION_DOT,MEAN_MOTION_DDOT
INMARSAT GX5,2019-080B,2026-06-17T19:08:00.493152,1.00273250,.00023,0.0347,357.7375,104.4679,101.8824,0,U,44801,999,679,0,.7E-6,0
JCSAT-18 (KACIFIC 1),2019-091A,2026-06-17T15:18:38.568960,1.00270163,.0000379,0.0338,219.1139,50.4383,15.9809,0,U,44868,999,2401,0,-.206E-5,0
ELEKTRO-L 3,2019-095A,2026-06-17T20:10:23.003328,1.00271345,.0000934,0.2593,81.5018,352.6740,210.4629,0,U,44903,999,2371,0,-.102E-5,0
SHIJIAN-20 (SJ-20),2019-097A,2026-06-17T06:20:14.312256,1.00273013,.0014479,4.9197,75.0598,55.6109,274.8205,0,U,44910,999,2369,0,.128E-5,0
TJS-5,2020-002A,2026-06-17T15:34:58.559232,1.00268310,.0007308,0.0129,326.1075,80.2830,200.7360,0,U,44978,999,2371,0,-.347E-5,0
GSAT-30,2020-005A,2026-06-17T09:56:28.523328,1.00270994,.0003374,0.0740,95.6947,349.5029,52.5749,0,U,45026,999,2351,0,-.169E-5,0
EUTELSAT KONNECT,2020-005B,2026-06-16T18:10:53.163264,1.00272204,.000147,0.0717,96.7174,123.4907,324.7594,0,U,45027,999,2433,0,.47E-6,0
JCSAT-17,2020-013A,2026-06-17T20:27:28.864224,1.00271265,.0002514,5.3922,356.8862,86.5296,265.5738,0,U,45245,999,2323,0,-.322E-5,0
GEO-KOMPSAT-2B,2020-013B,2026-06-17T20:25:21.565920,1.00269603,.0000757,0.0471,199.6226,68.9328,72.1439,0,U,45246,999,2328,0,-.349E-5,0
BEIDOU-3 G2,2020-017A,2026-06-17T20:11:37.882752,1.00271821,.000202,2.8657,47.3609,32.8268,208.8897,0,U,45344,999,2326,0,-.147E-5,0
AEHF-6 (USA 298),2020-022B,2026-06-17T20:28:06.303072,1.00271076,.0043134,2.5463,301.1760,17.0430,32.6845,0,U,45465,999,2302,0,-.303E-5,0
BEIDOU-3 G3,2020-040A,2026-06-17T20:20:14.558208,1.00266048,.0002365,2.4490,67.4442,335.7909,278.4060,0,U,45807,999,2207,0,-.36E-5,0
APSTAR-6D,2020-045A,2026-06-17T19:11:48.112224,1.00274698,.0002541,0.0483,93.7080,350.1275,244.2062,0,U,45863,999,2186,0,-.322E-5,0
KOREASAT 116,2020-048A,2026-06-17T20:21:51.900768,1.00268804,.0000801,0.0208,298.7152,179.6980,209.3411,0,U,45920,999,2164,0,-.367E-5,0
EXPRESS 103,2020-053A,2026-06-17T21:26:21.467328,1.00271887,.0000515,0.0145,288.7604,4.8817,30.5875,0,U,45985,999,2165,0,-.286E-5,0
EXPRESS 80,2020-053B,2026-06-17T00:58:52.974624,1.00270101,.0001697,0.0248,316.4086,216.9850,186.6086,0,U,45986,999,2163,0,0,0
BSAT-4B,2020-056A,2026-06-17T17:20:11.655168,1.00271397,.0003962,0.0550,148.9697,325.8186,161.0598,0,U,46112,999,2139,0,-.355E-5,0
MEV-2,2020-056B,2026-06-16T15:52:22.406880,1.00271868,.00002004,0.0133,313.0240,252.2268,296.7595,0,U,46113,999,8053,0,-.13E-6,0
GALAXY 30 (G-30),2020-056C,2026-06-17T17:30:27.955872,1.00271477,.0002128,0.0146,50.6946,36.1125,316.7814,0,U,46114,999,2129,0,.32E-6,0
GAOFEN-13 01,2020-071A,2026-06-17T20:22:36.828768,1.00270200,.0041375,0.5239,84.8383,123.7094,121.4163,0,U,46610,999,2092,0,-.368E-5,0
TIANTONG-1 2,2020-082A,2026-06-17T21:06:51.935328,1.00268965,.0000979,0.7894,327.6749,106.1235,273.9682,0,U,46916,999,2066,0,-.361E-5,0
LUCAS (JDRS-1),2020-089A,2026-06-17T20:14:37.594752,1.00269658,.0002274,0.0564,273.5898,149.0975,237.8573,0,U,47202,999,2042,0,-.241E-5,0
SXM-7,2020-096A,2026-06-17T19:24:17.360928,1.00269789,.0003766,0.0323,97.3305,28.2374,346.4003,0,U,47240,999,745,0,-.21E-5,0
CMS-01,2020-099A,2026-06-17T09:56:28.523328,1.00270629,.0003745,0.0994,94.4269,181.3695,221.9783,0,U,47256,999,2020,0,-.169E-5,0
TURKSAT 5A,2021-001A,2026-06-16T23:25:29.283168,1.00271004,.00001181,0.0216,61.3987,196.0319,30.1069,0,U,47306,999,1996,0,.151E-5,0
TIANTONG-1 3,2021-003A,2026-06-17T20:12:00.346752,1.00270207,.000301,1.7557,339.3646,112.4213,198.8365,0,U,47321,999,1996,0,-.159E-5,0
TJS-6,2021-010A,2026-06-17T18:56:57.482880,1.00269513,.0002912,0.2492,264.2466,225.4286,239.0828,0,U,47613,999,1981,0,.37E-6,0
SBIRS GEO-5 (USA 315),2021-042A,2026-06-17T15:25:29.024256,1.00270437,.0001301,5.1028,329.1386,121.0759,140.8559,0,U,48618,999,1877,0,-.272E-5,0
FENGYUN 4B,2021-047A,2026-06-17T20:18:37.213056,1.00276339,.0005949,0.1553,77.5947,275.3875,322.4050,0,U,48808,999,1857,0,-.336E-5,0
SXM-8,2021-049A,2026-06-17T19:24:32.338368,1.00270082,.0005042,0.0178,11.6514,18.9172,81.4738,0,U,48838,999,1859,0,-.21E-5,0
TIANLIAN 1-05,2021-063A,2026-06-17T19:53:34.431936,1.00271518,.0000501,1.5964,80.6998,332.3650,168.2061,0,U,49011,999,1808,0,.102E-5,0
STAR ONE D2,2021-069A,2026-06-17T05:41:07.726272,1.00268720,.0002093,0.0152,346.2449,126.0721,168.3531,0,U,49055,999,1794,0,0,0
